EUTELSAT 8 WEST B       
1 40875U 15039B   26007.36155782 -.00000064  00000+0  00000+0 0  9993
2 40875   0.0632   3.2932 0004150 282.1052 303.6977  1.00271922 38040
EUTELSAT 9B             
1 41310U 16005A   26007.38576035  .00000064  00000+0  00000+0 0  9991
2 41310   0.0166  32.8662 0004785 246.5455 335.4217  1.00274625 36502
EUTELSAT 65 WEST A      
1 41382U 16014A   26007.44244069 -.00000274  00000+0  00000+0 0  9990
2 41382   0.0613 322.2589 0002404 326.8848 271.9411  1.00271909 35923
EUTELSAT 117 WEST B     
1 41589U 16038B   26007.43221395 -.00000009  00000+0  00000+0 0  9997
2 41589   0.0098 205.8897 0000152 219.8190  79.8788  1.00271795 35055
EUTELSAT 172B           
1 42741U 17029B   26007.52158698 -.00000003  00000+0  00000+0 0  9998
2 42741   0.0279 124.9730 0000157 131.1753 210.6887  1.00271795 32120
EUTELSAT 7C             
1 44334U 19034B   26007.35600291  .00000050  00000+0  00000+0 0  9999
2 44334   0.0760 179.3597 0003408  91.6924 330.9983  1.00271245  5226
EUTELSAT 5 WEST B       
1 44624U 19067A   26007.31174653 -.00000040  00000+0  00000+0 0  9991
2 44624   0.0685 334.8222 0003314 312.6715 286.5944  1.00271710 22822
EUTELSAT KONNECT        
1 45027U 20005B   26007.35600291  .00000051  00000+0  00000+0 0  9990
2 45027   0.0700  93.1309 0001524 187.2951 321.8344  1.00270884 22725
